[{"OBJECT_NAME":"STARLINK-5977","OBJECT_ID":"2023-078AA","EPOCH":"2026-03-09T21:30:17.415360","MEAN_MOTION":14.98338947,"ECCENTRICITY":0.00031533,"INCLINATION":70.001,"RA_OF_ASC_NODE":343.8401,"ARG_OF_PERICENTER":269.6749,"MEAN_ANOMALY":90.4049,"EPHEMERIS_TYPE":0,"CLASSIFICATION_TYPE":"U","NORAD_CAT_ID":56791,"ELEMENT_SET_NO":999,"REV_AT_EPOCH":15271,"BSTAR":-0.00019998517,"MEAN_MOTION_DOT":-2.479e-5,"MEAN_MOTION_DDOT":0},{"OBJECT_NAME":"SITRO-AIS 18","OBJECT_ID":"2024-199BH","EPOCH":"2026-03-09T22:56:51.354816","MEAN_MOTION":14.97350577,"ECCENTRICITY":0.00069154,"INCLINATION":97.331,"RA_OF_ASC_NODE":274.6581,"ARG_OF_PERICENTER":53.7115,"MEAN_ANOMALY":306.4746,"EPHEMERIS_TYPE":0,"CLASSIFICATION_TYPE":"U","NORAD_CAT_ID":61790,"ELEMENT_SET_NO":999,"REV_AT_EPOCH":11718,"BSTAR":0.00032194999,"MEAN_MOTION_DOT":3.687e-5,"MEAN_MOTION_DDOT":0}]
